1 44967U 20001BF  23252.82569405  .00005746  00000-0  40435-3 0  9997
2 44967  53.0534  80.1344 0001069  76.6737 283.4371 15.06398246202976
1 44967U 20001BF  23253.22377646  .00013896  00000-0  94983-3 0  9998
2 44967  53.0533  78.3472 0001072  79.2976 280.8133 15.06403251203032
1 44967U 20001BF  23253.88723871  .00014999  00000-0  10231-2 0  9993
2 44967  53.0532  75.3689 0001078  78.0295 282.0814 15.06421789203132
1 44967U 20001BF  23254.21897346  .00006083  00000-0  42683-3 0  9992
2 44967  53.0534  73.8787 0001072  86.3714 273.7397 15.06408832203180
1 44967U 20001BF  23254.21897346  .00006083  00000-0  42683-3 0  9992
2 44967  53.0534  73.8787 0001072  86.3714 273.7397 15.06408832203180
1 44967U 20001BF  23254.74975014  .00005942  00000-0  41739-3 0  9993
2 44967  53.0532  71.4968 0001071  88.0689 272.0422 15.06403227203265
1 44967U 20001BF  23255.47956235  .00013670  00000-0  93440-3 0  9991
2 44967  53.0530  68.2200 0001020  87.2606 272.8499 15.06416132203373
1 44967U 20001BF  23255.74494448  .00018549  00000-0  12599-2 0  9999
2 44967  53.0534  67.0284 0000994  86.9295 273.1808 15.06429404203414
1 44967U 20001BF  23255.74494448  .00018549  00000-0  12599-2 0  9999
2 44967  53.0534  67.0284 0000994  86.9295 273.1808 15.06429404203414
1 44967U 20001BF  23256.20936700  .00017573  00000-0  11946-2 0  9994
2 44967  53.0539  64.9421 0001019 104.0291 256.0811 15.06433695203483
1 44967U 20001BF  23256.47475577  .00001310  00000-0  10682-3 0  9992
2 44967  53.0537  63.7509 0001180 106.2280 253.8839 15.06409095203523
1 44967U 20001BF  23256.67379811  .00018022  00000-0  12257-2 0  9995
2 44967  53.0538  62.8584 0001050 110.1869 249.9233 15.06399480203553
1 44967U 20001BF  23256.87283713  .00008759  00000-0  60600-3 0  9994
2 44967  53.0539  61.9649 0001021 100.1642 259.9463 15.06409134203589
1 44967U 20001BF  23257.46997157  .00013303  00000-0  91059-3 0  9997
2 44967  53.0552  59.2842 0001431  73.5045 286.6102 15.06386179203674
1 44967U 20001BF  23257.73535940  .00008984  00000-0  62143-3 0  9996
2 44967  53.0542  58.0928 0001081  94.0333 266.0779 15.06390537203714
1 44967U 20001BF  23257.86805443  .00008965  00000-0  62010-3 0  9990
2 44967  53.0540  57.4971 0001144  94.5428 265.5691 15.06390869203730
1 44967U 20001BF  23258.13344705  .00006965  00000-0  48619-3 0  9997
2 44967  53.0551  56.3048 0001526  92.0444 268.0720 15.06386339203772
1 44967U 20001BF  23258.46518479  .00002156  00000-0  16364-3 0  9994
2 44967  53.0533  54.8164 0001411  95.8341 264.2809 15.06381883203825
1 44967U 20001BF  23259.59307818  .00013351  00000-0  91312-3 0  9997
2 44967  53.0541  49.7525 0001181  88.7733 271.3391 15.06415976203992
1 44967U 20001BF  23259.72576947  .00016106  00000-0  10970-2 0  9994
2 44967  53.0545  49.1579 0001240  91.9189 268.1942 15.06423779204016
1 44967U 20001BF  23259.92480494  .00019244  00000-0  13060-2 0  9996
2 44967  53.0542  48.2635 0001178  86.8455 273.2668 15.06435704204041
1 44967U 20001BF  23260.72097563  .00027407  00000-0  18516-2 0  9998
2 44967  53.0547  44.6908 0001253  64.7103 295.4015 15.06402398204166
1 44967U 20001BF  23261.11905388  .00018290  00000-0  12431-2 0  9995
2 44967  53.0543  42.9024 0001143  73.2259 286.8856 15.06413367204229
1 44967U 20001BF  23261.58347426  .00024216  00000-0  16375-2 0  9995
2 44967  53.0544  40.8178 0001174  68.4162 291.6952 15.06435354204298
1 44967U 20001BF  23261.78250840  .00029845  00000-0  20113-2 0  9998
2 44967  53.0545  39.9245 0001228  65.5817 294.5300 15.06449896204327
1 44967U 20001BF  23261.91519671  .00030188  00000-0  20336-2 0  9992
2 44967  53.0544  39.3287 0001224  64.6905 295.4211 15.06459081204340
1 44967U 20001BF  23262.37963445 -.00001967  00000-0 -11325-3 0  9999
2 44967  53.0543  37.2435 0000832  94.5692 265.5392 15.06387706204410
1 44967U 20001BF  23262.77771737  .00031513  00000-0  21249-2 0  9997
2 44967  53.0547  35.4568 0001217  86.5468 273.5660 15.06402661204472
1 44967U 20001BF  23263.50754951  .00010454  00000-0  72020-3 0  9993
2 44967  53.0559  32.1811 0001241  86.7173 273.3958 15.06373370204586
1 44967U 20001BF  23263.57389850  .00019689  00000-0  13379-2 0  9992
2 44967  53.0556  31.8833 0001382  89.4246 270.6901 15.06374713204591
1 44967U 20001BF  23263.83928914  .00021358  00000-0  14490-2 0  9992
2 44967  53.0555  30.6912 0001449  86.7944 273.3211 15.06383819204630
1 44967U 20001BF  23264.56911363  .00023950  00000-0  16215-2 0  9990
2 44967  53.0552  27.4163 0001437  92.8535 267.2619 15.06395447204746
1 44967U 20001BF  23264.56911363  .00023950  00000-0  16215-2 0  9990
2 44967  53.0552  27.4163 0001437  92.8535 267.2619 15.06395447204746
1 44967U 20001BF  23264.76815417  .00018670  00000-0  12689-2 0  9999
2 44967  53.0553  26.5234 0001485  86.5351 273.5807 15.06401555204775
1 44967U 20001BF  23265.56429907  .00026985  00000-0  18212-2 0  9999
2 44967  53.0553  22.9488 0001401  91.8214 268.2935 15.06449017204892
1 44967U 20001BF  23265.69698788  .00027890  00000-0  18810-2 0  9998
2 44967  53.0553  22.3532 0001395  90.6798 269.4351 15.06456504204919
1 44967U 20001BF  23265.76333535  .00024802  00000-0  16763-2 0  9997
2 44967  53.0551  22.0550 0001477  84.0311 276.0847 15.06440332204920
1 44967U 20001BF  23266.02871350  .00020827  00000-0  14109-2 0  9994
2 44967  53.0546  20.8637 0001371  88.5260 271.5887 15.06454274204969
1 44967U 20001BF  23266.49313209  .00011937  00000-0  81814-3 0  9999
2 44967  53.0541  18.7782 0000941  97.2834 262.8262 15.06434264205033
1 44967U 20001BF  23266.55948366 -.00012315  00000-0 -80930-3 0  9995
2 44967  53.0542  18.4808 0001031  74.1130 285.9972 15.06399429205042
1 44967U 20001BF  23266.75852102 -.00010302  00000-0 -67369-3 0  9994
2 44967  53.0545  17.5866 0000813 112.8889 247.2186 15.06402463205071
1 44967U 20001BF  23267.55470244  .00025559  00000-0  17292-2 0  9993
2 44967  53.0553  14.0089 0001811 132.3361 227.7782 15.06385841205198
1 44967U 20001BF  23267.82009243  .00028322  00000-0  19125-2 0  9998
2 44967  53.0554  12.8189 0001108  82.2645 277.8469 15.06402241205230
1 44967U 20001BF  23268.28453017  .00037612  00000-0  25309-2 0  9994
2 44967  53.0554  10.7361 0000601 115.4576 244.6475 15.06393934205303
1 44967U 20001BF  23268.54991607  .00029611  00000-0  19983-2 0  9996
2 44967  53.0557   9.5431 0001859 139.7809 220.3318 15.06402540205349
1 44967U 20001BF  23268.74895634  .00034412  00000-0  23165-2 0  9993
2 44967  53.0554   8.6515 0001195  95.2116 264.9010 15.06421399205378
1 44967U 20001BF  23269.41242495  .00018345  00000-0  12469-2 0  9991
2 44967  53.0570   5.6706 0001437 100.9840 259.1311 15.06410974205470
1 44967U 20001BF  23269.47877088  .00025551  00000-0  17271-2 0  9992
2 44967  53.0568   5.3733 0001483  94.4365 265.6793 15.06419081205489
1 44967U 20001BF  23269.47877088  .00025551  00000-0  17271-2 0  9992
2 44967  53.0568   5.3733 0001483  94.4365 265.6793 15.06419081205489
1 44967U 20001BF  23270.40763123  .00016198  00000-0  11044-2 0  9990
2 44967  53.0558   1.2047 0001623 101.9873 258.1298 15.06381134205625
1 44967U 20001BF  23270.54032811  .00020017  00000-0  13595-2 0  9996
2 44967  53.0562   0.6086 0001787  95.3749 264.7444 15.06383962205644
1 44967U 20001BF  23271.53552536  .00020544  00000-0  13931-2 0  9996
2 44967  53.0552 356.1433 0001688  94.6477 265.4705 15.06425894205793
1 44967U 20001BF  23271.53552536  .00020544  00000-0  13931-2 0  9996
2 44967  53.0552 356.1433 0001688  94.6477 265.4705 15.06425894205793
1 44967U 20001BF  23271.66821592  .00019882  00000-0  13487-2 0  9990
2 44967  53.0554 355.5470 0001683  93.4286 266.6896 15.06431796205814
1 44967U 20001BF  23272.53073744  .00022793  00000-0  15445-2 0  9996
2 44967  53.0547 351.6762 0001711 112.4018 247.7152 15.06390700205942
1 44967U 20001BF  23272.53073744  .00022793  00000-0  15445-2 0  9996
2 44967  53.0547 351.6762 0001711 112.4018 247.7152 15.06390700205942
1 44967U 20001BF  23272.92881714  .00024152  00000-0  16343-2 0  9992
2 44967  53.0544 349.8892 0001677 111.2730 248.8438 15.06410930206006
1 44967U 20001BF  23273.52592147  .00027312  00000-0  18427-2 0  9994
2 44967  53.0543 347.2090 0001685 110.2634 249.8536 15.06453304206099
1 44967U 20001BF  23273.92400450  .00016538  00000-0  11258-2 0  9996
2 44967  53.0545 345.4213 0002122  82.0115 278.1115 15.06424345206153
1 44967U 20001BF  23274.45478177  .00028374  00000-0  19162-2 0  9999
2 44967  53.0540 343.0387 0001505  86.9875 273.1286 15.06397591206239
1 44967U 20001BF  23274.45478177  .00028374  00000-0  19162-2 0  9999
2 44967  53.0540 343.0387 0001505  86.9875 273.1286 15.06397591206239
1 44967U 20001BF  23274.58747680  .00036469  00000-0  24545-2 0  9996
2 44967  53.0539 342.4429 0001580  86.7534 273.3636 15.06401156206256
1 44967U 20001BF  23275.44998722  .00030847  00000-0  20797-2 0  9996
2 44967  53.0546 338.5705 0001455  89.8706 270.2450 15.06418216206382
1 44967U 20001BF  23275.64902606  .00026987  00000-0  18225-2 0  9997
2 44967  53.0547 337.6770 0001662  75.4848 284.6326 15.06424774206414
1 44967U 20001BF  23276.44519800  .00019592  00000-0  13309-2 0  9998
2 44967  53.0545 334.1010 0001339 110.1073 250.0060 15.06389553206539
1 44967U 20001BF  23276.44519800  .00019592  00000-0  13309-2 0  9998
2 44967  53.0545 334.1010 0001339 110.1073 250.0060 15.06389553206539
1 44967U 20001BF  23276.64424001  .00014691  00000-0  10034-2 0  9995
2 44967  53.0552 333.2050 0001593 115.3072 244.8082 15.06388672206568
1 44967U 20001BF  23277.44039245  .00024680  00000-0  16683-2 0  9991
2 44967  53.0542 329.6350 0001363  89.0689 271.0457 15.06436477206683
1 44967U 20001BF  23277.63942581  .00029291  00000-0  19743-2 0  9991
2 44967  53.0542 328.7417 0001424  92.2153 267.8999 15.06453577206715
1 44967U 20001BF  23277.83847711 -.00011352  00000-0 -74461-3 0  9992
2 44967  53.0547 327.8471 0001802  97.5405 262.5788 15.06389870206743
1 44967U 20001BF  23278.17021269  .00009841  00000-0  67885-3 0  9992
2 44967  53.0543 326.3585 0001370 115.2192 244.8939 15.06386724206791
